ONEWEB-0520             
1 54138U 22138AB  24314.58235521  .00000052  00000+0  96877-4 0  9999
2 54138  87.9179  61.2093 0001915  90.1369 269.9983 13.19727952 99717
ONEWEB-0521             
1 54139U 22138AC  24314.53971681  .00000148  00000+0  33638-3 0  9990
2 54139  87.9174  61.2086 0001609 110.2176 249.9130 13.19730811 99658
ONEWEB-0522             
1 54140U 22138AD  24314.59500531  .00000074  00000+0  15348-3 0  9996
2 54140  87.9175  61.1991 0001613  96.5865 263.5451 13.19728354 99704
ONEWEB-0523             
1 54141U 22138AE  24314.49109769  .00000121  00000+0  26655-3 0  9990
2 54141  87.9294  30.7575 0001108 129.8791 230.2439 13.20771506102121
ONEWEB-0524             
1 54142U 22138AF  24314.48003707  .00000146  00000+0  32711-3 0  9992
2 54142  87.9291  30.7622 0001019  70.8681 289.2563 13.20771922102120
ONEWEB-0525             
1 54143U 22138AG  24314.53814631  .00000113  00000+0  24998-3 0  9997
2 54143  87.9176  61.2233 0001896  95.3919 264.7430 13.19727228 99718
ONEWEB-0526             
1 54144U 22138AH  24314.57131866  .00000119  00000+0  26434-3 0  9997
2 54144  87.9177  61.2093 0001702  96.1596 263.9730 13.19728361 99690
ONEWEB-0529             
1 54145U 22138AJ  24314.57446794  .00000146  00000+0  33159-3 0  9999
2 54145  87.9185  61.2343 0001864  92.9348 267.1998 13.19726719 99716
